#aV2006 11 11  0  0   .00000000      96 DD+AD WGS84 FIT  NGA
## 1400 518400.00000000   900.00000000 54050  .0000000000000
+   30     1  2  3  4  5  6  7  8  9 10 11 13 14 15 16 17 18
+         19 20 21 22 23 24 25 26 27 28 29 30 31  0  0  0  0
+          0  0  0  0  0  0  0  0  0  0  0  0  0  0  0  0  0
+          0  0  0  0  0  0  0  0  0  0  0  0  0  0  0  0  0
+          0  0  0  0  0  0  0  0  0  0  0  0  0  0  0  0  0
++         0  0  0  0  0  0  0  0  0  0  0  0  0  0  0  0  0
++         0  0  0  0  0  0  0  0  0  0  0  0  0  0  0  0  0
++         0  0  0  0  0  0  0  0  0  0  0  0  0  0  0  0  0
++         0  0  0  0  0  0  0  0  0  0  0  0  0  0  0  0  0
++         0  0  0  0  0  0  0  0  0  0  0  0  0  0  0  0  0
%c cc cc ccc ccc cccc cccc cccc cccc ccccc ccccc ccccc ccccc
%c cc cc ccc ccc cccc cccc cccc cccc ccccc ccccc ccccc ccccc
%f  0.0000000  0.000000000  0.00000000000  0.000000000000000
%f  0.0000000  0.000000000  0.00000000000  0.000000000000000
%i    0    0    0    0      0      0      0      0         0
%i    0    0    0    0      0      0      0      0         0
/*      NGA, ST. LOUIS,MO.                                  
/*   EPHEMERIS COMPUTED FROM  3 DAYS OF DATA                
/* CCCCCCCCCCCCCCCCCCCCCCCCCCCCCCCCCCCCCCCCCCCCCCCCCCCCCCCCC
/* CCCCCCCCCCCCCCCCCCCCCCCCCCCCCCCCCCCCCCCCCCCCCCCCCCCCCCCCC
*  2006 11 11  4 15   .00000000                                                 
P  1 -13863.894440   5539.529923 -21755.889866     88.220319                    
V  1  -2853.597108 -27902.186158  -5300.532783       .025351                    
P  2  22845.034631 -11569.549015  -6802.559656     53.496584                    
V  2  -4671.768438   7680.047147 -30026.963236       .036494                    
P  3 -13275.045310  10333.970882  20299.165760    386.533668                    
V  3  -7167.260232 -25452.033649   8517.451917       .324854                    
P  4  20839.165532   -581.522296 -16708.318365    334.997826                    
V  4 -15763.612554  14024.760226 -19849.676522       .043586                    
P  5   2408.257208 -15753.760443 -21486.931289    361.878693                    
V  5  25646.134374   7866.569446  -2768.610168      -.036462                    
P  6  -7410.161261 -25155.028588   4204.234774    554.711083                    
V  6   2725.458481  -5674.523128 -30567.660541      -.128915                    
P  7 -15876.841934 -11736.094311  18062.342880    497.892463                    
V  7  -2397.278615 -22326.951365 -17029.745889      -.074554                    
P  8  14297.766934   7389.920560  21073.747562    -85.821475                    
V  8 -21757.969444  15893.673506   8709.500376      -.010211                    
P  9  13111.801907 -20612.051920 -10690.716976     44.117559                    
V  9  11404.594466  -6327.518904  27922.367665       .016749                    
P 10  20024.868623  -3940.142621  17069.712253     92.629414                    
V 10  19318.741824  10011.469542 -19930.838326       .006611                    
P 11  -9083.388492  22331.712622 -10922.663677    359.324718                    
V 11 -12746.366677   7226.728255  25849.562015       .016606                    
P 13   6548.429860  25019.232915   6056.758327    111.647181                    
V 13   -882.696579   7907.405551 -31208.428848       .035943                    
P 14 -14001.826149 -12247.701996 -18907.994217     -1.331218                    
V 14  -1812.274367 -24036.177842  16769.434627       .009427                    
P 15 -15703.917903  -6830.409552  20275.993286     79.615436                    
V 15  21199.845606 -14995.406295  10865.044218       .436869                    
P 16 -22295.369536   1513.427925  14522.279965     90.642783                    
V 16 -16032.343172  -8954.523678 -23688.635550       .037022                    
P 17  14644.364202  12319.955643 -18470.571973     90.026968                    
V 17   1590.734415  23393.969070  16762.665875      -.012142                    
P 18 -16293.032514 -17216.105994  12435.714827   -252.378889                    
V 18  14963.494787   4514.105443  25808.126896      -.005505                    
P 19  -9220.137868  19858.306992  15076.275367     33.078000                    
V 19  -3461.817040 -18812.937519  22893.882355       .038298                    
P 20   1004.478159  16380.178246 -20976.932637    -21.836551                    
V 20 -24843.592114  -9105.039391  -8300.842611       .000727                    
P 21  -8754.168499 -12996.651016  21523.953903     60.891976                    
V 21  22301.043006 -15589.680813   -892.823043       .015072                    
P 22 -23740.212648 -11915.136810    908.551846    148.484585                    
V 22   2164.467215  -2339.141466  31541.899899       .027080                    
P 23   -311.017439  25901.638928  -5471.115714    140.205592                    
V 23  -3496.345514  -6464.740935 -31059.436652       .007424                    
P 24  23438.096283  -7504.645651 -10204.016308     51.408005                    
V 24  -9461.853468   9429.574814 -27809.062289       .029949                    
P 25 -21752.180478   8076.802908 -12663.428082    403.190989                    
V 25  10559.051444 -13128.902301 -25551.041267       .052910                    
P 26   8360.573293 -19091.707757  15700.722433   -330.947893                    
V 26   3894.480436  20575.092531  22923.790585      -.161702                    
P 27   5900.529100  14973.490483  21705.441918     77.436011                    
V 27 -20124.319596  16739.493611  -6552.927118       .020424                    
P 28  22470.713113  13695.045443   5101.620147     14.555778                    
V 28  -6502.696607   -194.429299  30648.982623      -.008356                    
P 29  10546.227384 -15339.278029  19043.241412    185.094613                    
V 29   4367.386510  23372.363874  16911.236912       .293286                    
P 30 -10829.786304 -17347.234632 -17310.926534     16.041162                    
V 30  20716.131155   5685.055182 -18879.652991       .011662                    
P 31 -21983.999223   4682.319449 -13988.568124    -47.679885                    
V 31  12912.672267 -12840.795231 -24220.599623       .103638                    
EOF
